{"type": "FeatureCollection", "features": [ {"type": "Feature", "properties": {"norad_id": 39122, "name": "EUTELSAT 117 WEST A", "group": "eutelsat", "lat": -0.012394257780996796, "lon": -41.515704638294956, "alt_km": 35777.35838044115, "timestamp": "2025-12-25T22:42:16.667931+00:00", "meta": {"OBJECT_NAME": "EUTELSAT 117 WEST A", "OBJECT_ID": "2013-012A", "EPOCH": "2025-12-25T15:56:10.681728", "MEAN_MOTION": 1.00270782, "ECCENTRICITY": 0.0002791, "INCLINATION": 0.0176, "RA_OF_ASC_NODE": 324.0634, "ARG_OF_PERICENTER": 314.0111, "MEAN_ANOMALY": 298.594, "EPHEMERIS_TYPE": 0, "CLASSIFICATION_TYPE": "U", "NORAD_CAT_ID": 39122, "ELEMENT_SET_NO": 999, "REV_AT_EPOCH": 4669, "BSTAR": 0, "MEAN_MOTION_DOT": 9e-08, "MEAN_MOTION_DDOT": 0}, "tle": {"line1": "1 39122U 13012A   25359.66401252  .00000009  00000+0  00000+0 0  9991", "line2": "2 39122   0.0176 324.0634 0002791 314.0111 298.5940  1.00270782 46694"}}, "geometry": {"type": "Point", "coordinates": [-41.515704638294956, -0.012394257780996796]}}, {"type": "Feature", "properties": {"norad_id": 39163, "name": "EUTELSAT 7B", "group": "eutelsat", "lat": 0.08181476149643777, "lon": 82.29984078230557, "alt_km": 35795.92228691388, "timestamp": "2025-12-25T22:42:16.667944+00:00", "meta": {"OBJECT_NAME": "EUTELSAT 7B", "OBJECT_ID": "2013-022A", "EPOCH": "2025-12-25T13:05:49.496064", "MEAN_MOTION": 1.00271702, "ECCENTRICITY": 0.0004644, "INCLINATION": 0.066, "RA_OF_ASC_NODE": 10.1189, "ARG_OF_PERICENTER": 312.1563, "MEAN_ANOMALY": 335.4778, "EPHEMERIS_TYPE": 0, "CLASSIFICATION_TYPE": "U", "NORAD_CAT_ID": 39163, "ELEMENT_SET_NO": 999, "REV_AT_EPOCH": 4620, "BSTAR": 0, "MEAN_MOTION_DOT": 6.9e-07, "MEAN_MOTION_DDOT": 0}, "tle": {"line1": "1 39163U 13022A   25359.54571176  .00000069  00000+0  00000+0 0  9993", "line2": "2 39163   0.0660  10.1189 0004644 312.1563 335.4778  1.00271702 46204"}}, "geometry": {"type": "Point", "coordinates": [82.29984078230557, 0.08181476149643777]}}, {"type": "Feature", "properties": {"norad_id": 39612, "name": "EXPRESS-AT1", "group": "eutelsat", "lat": 0.00815379372393568, "lon": 131.2584902574509, "alt_km": 35782.515053376956, "timestamp": "2025-12-25T22:42:16.667956+00:00", "meta": {"OBJECT_NAME": "EXPRESS-AT1", "OBJECT_ID": "2014-010A", "EPOCH": "2025-12-25T13:19:48.156672", "MEAN_MOTION": 1.0027145, "ECCENTRICITY": 8.81e-05, "INCLINATION": 0.0121, "RA_OF_ASC_NODE": 301.1676, "ARG_OF_PERICENTER": 176.9895, "MEAN_ANOMALY": 232.1025, "EPHEMERIS_TYPE": 0, "CLASSIFICATION_TYPE": "U", "NORAD_CAT_ID": 39612, "ELEMENT_SET_NO": 999, "REV_AT_EPOCH": 4307, "BSTAR": 0, "MEAN_MOTION_DOT": 1e-06, "MEAN_MOTION_DDOT": 0}, "tle": {"line1": "1 39612U 14010A   25359.55541848  .00000100  00000+0  00000+0 0  9990", "line2": "2 39612   0.0121 301.1676 0000881 176.9895 232.1025  1.00271450 43072"}}, "geometry": {"type": "Point", "coordinates": [131.2584902574509, 0.00815379372393568]}}, {"type": "Feature", "properties": {"norad_id": 39613, "name": "EXPRESS-AT2", "group": "eutelsat", "lat": -0.017173799520338224, "lon": -144.89264203711133, "alt_km": 35782.569102078225, "timestamp": "2025-12-25T22:42:16.667968+00:00", "meta": {"OBJECT_NAME": "EXPRESS-AT2", "OBJECT_ID": "2014-010B", "EPOCH": "2025-12-25T17:52:52.676832", "MEAN_MOTION": 1.00271624, "ECCENTRICITY": 0.0001622, "INCLINATION": 0.0143, "RA_OF_ASC_NODE": 298.5676, "ARG_OF_PERICENTER": 335.0539, "MEAN_ANOMALY": 228.9608, "EPHEMERIS_TYPE": 0, "CLASSIFICATION_TYPE": "U", "NORAD_CAT_ID": 39613, "ELEMENT_SET_NO": 999, "REV_AT_EPOCH": 4276, "BSTAR": 0, "MEAN_MOTION_DOT": -2.6e-06, "MEAN_MOTION_DDOT": 0}, "tle": {"line1": "1 39613U 14010B   25359.74505413 -.00000260  00000+0  00000+0 0  9998", "line2": "2 39613   0.0143 298.5676 0001622 335.0539 228.9608  1.00271624 42761"}}, "geometry": {"type": "Point", "coordinates": [-144.89264203711133, -0.017173799520338224]}}, {"type": "Feature", "properties": {"norad_id": 39773, "name": "EUTELSAT 3B", "group": "eutelsat", "lat": 0.07834339463570564, "lon": 78.33891444120943, "alt_km": 35803.065573630134, "timestamp": "2025-12-25T22:42:16.667980+00:00", "meta": {"OBJECT_NAME": "EUTELSAT 3B", "OBJECT_ID": "2014-030A", "EPOCH": "2025-12-25T13:04:57.078048", "MEAN_MOTION": 1.00270191, "ECCENTRICITY": 0.0004266, "INCLINATION": 0.0604, "RA_OF_ASC_NODE": 350.2133, "ARG_OF_PERICENTER": 244.8822, "MEAN_ANOMALY": 58.545, "EPHEMERIS_TYPE": 0, "CLASSIFICATION_TYPE": "U", "NORAD_CAT_ID": 39773, "ELEMENT_SET_NO": 999, "REV_AT_EPOCH": 4232, "BSTAR": 0, "MEAN_MOTION_DOT": 4.1e-07, "MEAN_MOTION_DDOT": 0}, "tle": {"line1": "1 39773U 14030A   25359.54510507  .00000041  00000+0  00000+0 0  9991", "line2": "2 39773   0.0604 350.2133 0004266 244.8822  58.5450  1.00270191 42325"}}, "geometry": {"type": "Point", "coordinates": [78.33891444120943, 0.07834339463570564]}}, {"type": "Feature", "properties": {"norad_id": 40425, "name": "EUTELSAT 115 WEST B", "group": "eutelsat", "lat": 0.012471687892258596, "lon": -39.65109592350413, "alt_km": 35785.79635879431, "timestamp": "2025-12-25T22:42:16.667991+00:00", "meta": {"OBJECT_NAME": "EUTELSAT 115 WEST B", "OBJECT_ID": "2015-010B", "EPOCH": "2025-12-24T09:59:58.343136", "MEAN_MOTION": 1.00271259, "ECCENTRICITY": 1.435e-05, "INCLINATION": 0.0435, "RA_OF_ASC_NODE": 188.915, "ARG_OF_PERICENTER": 182.2118, "MEAN_ANOMALY": 117.1483, "EPHEMERIS_TYPE": 0, "CLASSIFICATION_TYPE": "U", "NORAD_CAT_ID": 40425, "ELEMENT_SET_NO": 999, "REV_AT_EPOCH": 3964, "BSTAR": 0, "MEAN_MOTION_DOT": -4e-08, "MEAN_MOTION_DDOT": 0}, "tle": {"line1": "1 40425U 15010B   25358.41664749 -.00000004  00000+0  00000+0 0  9999", "line2": "2 40425   0.0435 188.9150 0000143 182.2118 117.1483  1.00271259 39646"}}, "geometry": {"type": "Point", "coordinates": [-39.65109592350413, 0.012471687892258596]}}, {"type": "Feature", "properties": {"norad_id": 40875, "name": "EUTELSAT 8 WEST B", "group": "eutelsat", "lat": 0.07156468762524203, "lon": 67.28066401805644, "alt_km": 35802.040657292724, "timestamp": "2025-12-25T22:42:16.668003+00:00", "meta": {"OBJECT_NAME": "EUTELSAT 8 WEST B", "OBJECT_ID": "2015-039B", "EPOCH": "2025-12-25T06:10:40.433088", "MEAN_MOTION": 1.00271322, "ECCENTRICITY": 0.000422, "INCLINATION": 0.0645, "RA_OF_ASC_NODE": 9.1951, "ARG_OF_PERICENTER": 265.5835, "MEAN_ANOMALY": 263.9078, "EPHEMERIS_TYPE": 0, "CLASSIFICATION_TYPE": "U", "NORAD_CAT_ID": 40875, "ELEMENT_SET_NO": 999, "REV_AT_EPOCH": 3791, "BSTAR": 0, "MEAN_MOTION_DOT": -4.4e-07, "MEAN_MOTION_DDOT": 0}, "tle": {"line1": "1 40875U 15039B   25359.25741242 -.00000044  00000+0  00000+0 0  9990", "line2": "2 40875   0.0645   9.1951 0004220 265.5835 263.9078  1.00271322 37911"}}, "geometry": {"type": "Point", "coordinates": [67.28066401805644, 0.07156468762524203]}}, {"type": "Feature", "properties": {"norad_id": 41310, "name": "EUTELSAT 9B", "group": "eutelsat", "lat": 0.03249569774203276, "lon": 84.2674347545886, "alt_km": 35806.03197485096, "timestamp": "2025-12-25T22:42:16.668015+00:00", "meta": {"OBJECT_NAME": "EUTELSAT 9B", "OBJECT_ID": "2016-005A", "EPOCH": "2025-12-25T16:31:52.263840", "MEAN_MOTION": 1.00269837, "ECCENTRICITY": 0.0004671, "INCLINATION": 0.0258, "RA_OF_ASC_NODE": 45.4208, "ARG_OF_PERICENTER": 229.6362, "MEAN_ANOMALY": 76.3538, "EPHEMERIS_TYPE": 0, "CLASSIFICATION_TYPE": "U", "NORAD_CAT_ID": 41310, "ELEMENT_SET_NO": 999, "REV_AT_EPOCH": 3637, "BSTAR": 0, "MEAN_MOTION_DOT": 8.3e-07, "MEAN_MOTION_DDOT": 0}, "tle": {"line1": "1 41310U 16005A   25359.68879935  .00000083  00000+0  00000+0 0  9999", "line2": "2 41310   0.0258  45.4208 0004671 229.6362  76.3538  1.00269837 36374"}}, "geometry": {"type": "Point", "coordinates": [84.2674347545886, 0.03249569774203276]}}, {"type": "Feature", "properties": {"norad_id": 41382, "name": "EUTELSAT 65 WEST A", "group": "eutelsat", "lat": 0.02238361759424328, "lon": 10.1076906089657, "alt_km": 35786.64722925101, "timestamp": "2025-12-25T22:42:16.668027+00:00", "meta": {"OBJECT_NAME": "EUTELSAT 65 WEST A", "OBJECT_ID": "2016-014A", "EPOCH": "2025-12-25T00:39:29.297088", "MEAN_MOTION": 1.00271925, "ECCENTRICITY": 0.00022825, "INCLINATION": 0.0484, "RA_OF_ASC_NODE": 343.8685, "ARG_OF_PERICENTER": 293.2062, "MEAN_ANOMALY": 121.4109, "EPHEMERIS_TYPE": 0, "CLASSIFICATION_TYPE": "U", "NORAD_CAT_ID": 41382, "ELEMENT_SET_NO": 999, "REV_AT_EPOCH": 3578, "BSTAR": 0, "MEAN_MOTION_DOT": -2.55e-06, "MEAN_MOTION_DDOT": 0}, "tle": {"line1": "1 41382U 16014A   25359.02742242 -.00000255  00000+0  00000+0 0  9998", "line2": "2 41382   0.0484 343.8685 0002282 293.2062 121.4109  1.00271925 35789"}}, "geometry": {"type": "Point", "coordinates": [10.1076906089657, 0.02238361759424328]}}, {"type": "Feature", "properties": {"norad_id": 41589, "name": "EUTELSAT 117 WEST B", "group": "eutelsat", "lat": 0.003516172038378189, "lon": -41.714825127411004, "alt_km": 35781.8605474107, "timestamp": "2025-12-25T22:42:16.668039+00:00", "meta": {"OBJECT_NAME": "EUTELSAT 117 WEST B", "OBJECT_ID": "2016-038B", "EPOCH": "2025-12-24T09:59:01.014144", "MEAN_MOTION": 1.00277873, "ECCENTRICITY": 6.384e-05, "INCLINATION": 0.0094, "RA_OF_ASC_NODE": 154.0765, "ARG_OF_PERICENTER": 139.5473, "MEAN_ANOMALY": 192.3072, "EPHEMERIS_TYPE": 0, "CLASSIFICATION_TYPE": "U", "NORAD_CAT_ID": 41589, "ELEMENT_SET_NO": 999, "REV_AT_EPOCH": 3491, "BSTAR": 0, "MEAN_MOTION_DOT": 9e-08, "MEAN_MOTION_DDOT": 0}, "tle": {"line1": "1 41589U 16038B   25358.41598396  .00000009  00000+0  00000+0 0  9990", "line2": "2 41589   0.0094 154.0765 0000638 139.5473 192.3072  1.00277873 34915"}}, "geometry": {"type": "Point", "coordinates": [-41.714825127411004, 0.003516172038378189]}}]}